format  = 'OEF2.0'       ! file format
rectype = 'ML'           ! record type (1L/ML)
refsys  = ECLM J2000     ! default reference system
END_OF_HEADER
2
! Equinoctial elements: a, e*sin(LP), e*cos(LP), tan(i/2)*sin(LN), tan(i/2)*cos(LN), mean long.
 EQU   2.7720273493855210E+00   0.194807787327106  -0.128034003036998    0.036231930603664   -0.311147571115019 294.2168793364906
 MJD     45634.170915497 TDT
 MAG   4.203  0.150
! Non-grav parameters: model used, actual number in use, dimension
 LSP   0  0    6
! RMS    2.83624E-09   2.81885E-08   2.82015E-08   3.14525E-08   3.24644E-08   2.95254E-06
! EIG   2.36267E-09   2.68854E-08   2.73706E-08   2.96164E-08   3.28197E-08   5.35242E-08
! WEA   0.02556  -0.01057  -0.13993  -0.28564  -0.01994   0.94745
 COV   8.044265003683575E-18 -4.453148086163506E-18  9.398667352251071E-20
 COV  -3.488383592732268E-18 -4.172223866139563E-18  4.347811524446843E-15
 COV   7.945911411361533E-16  4.290793611612091E-17  6.919131076518737E-17
 COV  -1.398241172092027E-18  2.404555840719960E-16  7.953266004943444E-16
 COV   1.063891565693837E-16  6.116528732701211E-18 -1.564030890413853E-14
 COV   9.892611309936510E-16 -6.084155906696435E-17 -3.152107523990767E-14
 COV   1.053937197854883E-15 -3.176927213895965E-15  8.717480281939474E-12
 NOR   1.788880244407464E+17  1.344882536013640E+15 -1.755293103491596E+15
 NOR  -2.485352952339182E+15  2.713270967979753E+14 -1.012938495451225E+14
 NOR   1.280865814835299E+15 -7.858009066989170E+13 -1.171034608554139E+14
 NOR  -3.113933724262804E+12 -1.271631641399648E+12  1.328788323249874E+15
 NOR  -4.550262292573123E+13 -8.064459289873672E+12  3.094165490047093E+12
 NOR   1.195453944194810E+15  7.589417755638719E+13  5.511389960866430E+12
 NOR   9.557469672053218E+14  4.730201328063708E+11  1.909191275161772E+11
